stk.v.4.3 

BEGIN Ephemeris 
 
NumberOfEphemerisPoints		146 
ScenarioEpoch	    4 Sep 2020  0:39:15.501607061 
InterpolationMethod		Lagrange 
InterpolationOrder		5 
CentralBody				Earth 
CoordinateSystem			TEME 
CoordinateSystemEpoch	  4 Sep 2020  0:39:15.501607061 
DistanceUnit			Kilometers 
 
EphemerisTimePosVel 
 
       0.00000000   -6555.91699480    2875.63336431       0.03553296 -0.179469638 -0.432330226  7.448777262
 END Ephemeris 
